NEXTSAT-1               
1 43811U 18099BF  26068.68342010  .00004546  00000+0  29857-3 0  9992
2 43811  97.4203 114.8574 0011320 323.9610  36.0854 15.08057555396886
STARLINK-3362           
1 51108U 22005E   26068.04768789  .00000406  00000+0  43594-4 0  9993
2 51108  53.2181 292.0011 0001753  83.5935 276.5256 15.08834517228783
