[{"OBJECT_NAME":"NEXTSAT-1","OBJECT_ID":"2018-099BF","EPOCH":"2026-03-09T16:24:07.497504","MEAN_MOTION":15.08057555,"ECCENTRICITY":0.001132,"INCLINATION":97.4203,"RA_OF_ASC_NODE":114.8574,"ARG_OF_PERICENTER":323.961,"MEAN_ANOMALY":36.0854,"EPHEMERIS_TYPE":0,"CLASSIFICATION_TYPE":"U","NORAD_CAT_ID":43811,"ELEMENT_SET_NO":999,"REV_AT_EPOCH":39688,"BSTAR":0.00029857014,"MEAN_MOTION_DOT":4.546e-5,"MEAN_MOTION_DDOT":0},{"OBJECT_NAME":"STARLINK-3362","OBJECT_ID":"2022-005E","EPOCH":"2026-03-09T01:08:40.233696","MEAN_MOTION":15.08834517,"ECCENTRICITY":0.00017532,"INCLINATION":53.2181,"RA_OF_ASC_NODE":292.0011,"ARG_OF_PERICENTER":83.5935,"MEAN_ANOMALY":276.5256,"EPHEMERIS_TYPE":0,"CLASSIFICATION_TYPE":"U","NORAD_CAT_ID":51108,"ELEMENT_SET_NO":999,"REV_AT_EPOCH":22878,"BSTAR":4.3594031e-5,"MEAN_MOTION_DOT":4.06e-6,"MEAN_MOTION_DDOT":0}]
